NORAD_CAT_ID,OBJECT_NAME,OBJECT_TYPE,EPOCH,MEAN_MOTION,ECCENTRICITY,INCLINATION,RA_OF_ASC_NODE,ARG_OF_PERICENTER,MEAN_ANOMALY,BSTAR,MEAN_MOTION_DOT,MEAN_MOTION_DDOT,TLE_LINE0,TLE_LINE1,TLE_LINE2,SEMIMAJOR_AXIS,PERIOD,APOGEE,PERIGEE,DECAYED
53984.0,STARLINK-5142,PAYLOAD,2023-10-21 01:14:52,15.08832171,0.0001624,53.2181,162.7184,94.8386,265.2791,-0.00011298,-2.085e-05,0.0,0 STARLINK-5142,1 53984U 22125W   23294.05199492 -.00002085  00000-0 -11298-3 0  9991,2 53984  53.2181 162.7184 0001624  94.8386 265.2791 15.08832171 58024,6917.904,95.438,540.893,538.646,0.0
53984.0,STARLINK-5142,PAYLOAD,2023-10-21 18:44:05,15.08851331,0.0001341,53.2174,159.449,107.8064,252.3075,-4.7852e-05,-1.05e-05,0.0,0 STARLINK-5142,1 53984U 22125W   23294.78061997 -.00001050  00000-0 -47852-4 0  9996,2 53984  53.2174 159.4490 0001341 107.8064 252.3075 15.08851331 58204,6917.846,95.437,540.638,538.783,0.0
53984.0,STARLINK-5142,PAYLOAD,2023-10-21 21:54:51,15.0884598,0.0001424,53.2164,158.8542,93.2501,266.8654,0.00019165,2.764e-05,0.0,0 STARLINK-5142,1 53984U 22125W   23294.91309534  .00002764  00000-0  19165-3 0  9999,2 53984  53.2164 158.8542 0001424  93.2501 266.8654 15.08845980 58150,6917.862,95.437,540.712,538.742,0.0
53984.0,STARLINK-5142,PAYLOAD,2023-10-22 07:27:10,15.08838391,0.0001431,53.2173,157.0691,89.8006,270.315,0.00011337,1.517e-05,0.0,0 STARLINK-5142,1 53984U 22125W   23295.31054326  .00001517  00000-0  11337-3 0  9998,2 53984  53.2173 157.0691 0001431  89.8006 270.3150 15.08838391 58288,6917.885,95.438,540.74,538.76,0.0
53984.0,STARLINK-5142,PAYLOAD,2023-10-22 18:34:54,15.08814094,0.0001271,53.2163,154.9891,93.0788,267.0349,9.8771e-06,-1.31e-06,0.0,0 STARLINK-5142,1 53984U 22125W   23295.77424496 -.00000131  00000-0  98771-5 0  9998,2 53984  53.2163 154.9891 0001271  93.0788 267.0349 15.08814094 58356,6917.96,95.439,540.704,538.945,0.0
53984.0,STARLINK-5142,PAYLOAD,2023-10-22 21:45:40,15.08820871,0.0001293,53.2167,154.395,91.7862,268.3278,8.4947e-05,1.064e-05,0.0,0 STARLINK-5142,1 53984U 22125W   23295.90672294  .00001064  00000-0  84947-4 0  9998,2 53984  53.2167 154.3950 0001293  91.7862 268.3278 15.08820871 58302,6917.939,95.439,540.698,538.909,0.0
53984.0,STARLINK-5142,PAYLOAD,2023-10-23 07:17:59,15.08830171,0.00014,53.2163,152.6127,88.3871,271.7282,-8.5932e-06,-4.25e-06,0.0,0 STARLINK-5142,1 53984U 22125W   23296.30415754 -.00000425  00000-0 -85932-5 0  9997,2 53984  53.2163 152.6127 0001400  88.3871 271.7282 15.08830171 58438,6917.91,95.438,540.744,538.807,0.0
53984.0,STARLINK-5142,PAYLOAD,2023-10-23 21:36:26,15.088437,0.0001302,53.2153,149.9345,90.618,269.4961,4.3102e-05,3.98e-06,0.0,0 STARLINK-5142,1 53984U 22125W   23296.90031173  .00000398  00000-0  43102-4 0  9991,2 53984  53.2153 149.9345 0001302  90.6180 269.4961 15.08843700 58450,6917.869,95.437,540.635,538.833,0.0
53984.0,STARLINK-5142,PAYLOAD,2023-10-24 03:57:59,15.08846049,0.0001291,53.2152,148.7443,86.6635,273.4504,0.00011797,1.59e-05,0.0,0 STARLINK-5142,1 53984U 22125W   23297.16527140  .00001590  00000-0  11797-3 0  9993,2 53984  53.2152 148.7443 0001291  86.6635 273.4504 15.08846049 58561,6917.862,95.437,540.62,538.834,0.0
53984.0,STARLINK-5142,PAYLOAD,2023-10-24 13:30:18,15.08844829,0.000129,53.2152,146.9602,83.1626,276.9513,0.00038585,5.859e-05,0.0,0 STARLINK-5142,1 53984U 22125W   23297.56271576  .00005859  00000-0  38585-3 0  9992,2 53984  53.2152 146.9602 0001290  83.1626 276.9513 15.08844829 58550,6917.866,95.437,540.623,538.838,0.0
53984.0,STARLINK-5142,PAYLOAD,2023-10-25 13:21:06,15.08820799,0.0001056,53.2148,142.4999,87.6977,272.4136,-0.00045821,-7.569e-05,0.0,0 STARLINK-5142,1 53984U 22125W   23298.55632004 -.00007569  00000-0 -45821-3 0  9992,2 53984  53.2148 142.4999 0001056  87.6977 272.4136 15.08820799 58779,6917.939,95.439,540.535,539.074,0.0
53984.0,STARLINK-5142,PAYLOAD,2023-10-25 21:18:02,15.08810968,0.0001252,53.215,141.0131,87.4064,272.7071,-0.00042218,-6.995e-05,0.0,0 STARLINK-5142,1 53984U 22125W   23298.88753232 -.00006995  00000-0 -42218-3 0  9994,2 53984  53.2150 141.0131 0001252  87.4064 272.7071 15.08810968 58754,6917.969,95.439,540.7,538.968,0.0
53984.0,STARLINK-5142,PAYLOAD,2023-10-26 02:04:11,15.0883727,0.0001187,53.2148,140.1209,82.5273,277.5854,0.00014484,2.018e-05,0.0,0 STARLINK-5142,1 53984U 22125W   23299.08624391  .00002018  00000-0  14484-3 0  9994,2 53984  53.2148 140.1209 0001187  82.5273 277.5854 15.08837270 58850,6917.889,95.438,540.575,538.933,0.0
53984.0,STARLINK-5142,PAYLOAD,2023-10-26 13:11:53,15.08844667,0.0001195,53.2147,138.0393,81.4637,278.649,0.00037851,5.742e-05,0.0,0 STARLINK-5142,1 53984U 22125W   23299.54992436  .00005742  00000-0  37851-3 0  9993,2 53984  53.2147 138.0393 0001195  81.4637 278.6490 15.08844667 58856,6917.866,95.437,540.558,538.904,0.0
53984.0,STARLINK-5142,PAYLOAD,2023-10-26 19:33:26,15.08851547,0.0001221,53.2144,136.85,79.2426,280.8704,0.0011082,0.00017399,0.0,0 STARLINK-5142,1 53984U 22125W   23299.81488695  .00017399  00000-0  11082-2 0  9998,2 53984  53.2144 136.8500 0001221  79.2426 280.8704 15.08851547 58892,6917.845,95.437,540.555,538.865,0.0
53984.0,STARLINK-5142,PAYLOAD,2023-10-26 22:44:12,15.08856355,0.0001197,53.2144,136.2553,76.8536,283.259,0.00118,0.0001855,0.0,0 STARLINK-5142,1 53984U 22125W   23299.94736600  .00018550  00000-0  11800-2 0  9992,2 53984  53.2144 136.2553 0001197  76.8536 283.2590 15.08856355 58983,6917.83,95.437,540.523,538.867,0.0
53984.0,STARLINK-5142,PAYLOAD,2023-10-27 13:02:40,15.08860595,0.0001247,53.2142,133.579,75.9008,284.2122,0.00048695,7.475e-05,0.0,0 STARLINK-5142,1 53984U 22125W   23300.54351886  .00007475  00000-0  48695-3 0  9997,2 53984  53.2142 133.5790 0001247  75.9008 284.2122 15.08860595 59001,6917.817,95.436,540.545,538.82,0.0
53984.0,STARLINK-5142,PAYLOAD,2023-10-27 19:24:12,15.08867288,0.0001268,53.2142,132.3898,76.3141,283.7992,0.00046849,7.181e-05,0.0,0 STARLINK-5142,1 53984U 22125W   23300.80847314  .00007181  00000-0  46849-3 0  9995,2 53984  53.2142 132.3898 0001268  76.3141 283.7992 15.08867288 59110,6917.797,95.436,540.539,538.785,0.0
53984.0,STARLINK-5142,PAYLOAD,2023-10-28 19:14:58,15.08848335,0.0001253,53.2147,127.9275,87.109,273.0045,6.6334e-06,-1.82e-06,0.0,0 STARLINK-5142,1 53984U 22125W   23301.80207029 -.00000182  00000-0  66334-5 0  9997,2 53984  53.2147 127.9275 0001253  87.1090 273.0045 15.08848335 59260,6917.855,95.437,540.587,538.853,0.0
53984.0,STARLINK-5142,PAYLOAD,2023-10-29 12:44:13,15.08842418,0.0001171,53.215,124.6555,87.2822,272.8304,0.00012323,1.674e-05,0.0,0 STARLINK-5142,1 53984U 22125W   23302.53071170  .00001674  00000-0  12323-3 0  9997,2 53984  53.2150 124.6555 0001171  87.2822 272.8304 15.08842418 59375,6917.873,95.437,540.548,538.928,0.0
53984.0,STARLINK-5142,PAYLOAD,2023-10-29 19:05:45,15.08849763,0.0001111,53.2149,123.4671,87.3284,272.7835,8.7229e-05,1.101e-05,0.0,0 STARLINK-5142,1 53984U 22125W   23302.79566781  .00001101  00000-0  87229-4 0  9995,2 53984  53.2149 123.4671 0001111  87.3284 272.7835 15.08849763 59341,6917.851,95.437,540.484,538.947,0.0
53984.0,STARLINK-5142,PAYLOAD,2023-10-30 18:56:33,15.08829462,0.0001191,53.2156,119.008,93.3147,266.7981,0.00027543,4.097e-05,0.0,0 STARLINK-5142,1 53984U 22125W   23303.78927750  .00004097  00000-0  27543-3 0  9991,2 53984  53.2156 119.0080 0001191  93.3147 266.7981 15.08829462 59560,6917.913,95.438,540.602,538.954,0.0
53984.0,STARLINK-5142,PAYLOAD,2023-10-30 22:07:21,15.08806123,0.0001323,53.2155,118.413,99.1881,260.9261,0.0010163,0.00015908,0.0,0 STARLINK-5142,1 53984U 22125W   23303.92177097  .00015908  00000-0  10163-2 0  9990,2 53984  53.2155 118.4130 0001323  99.1881 260.9261 15.08806123 59515,6917.984,95.44,540.764,538.934,0.0
53984.0,STARLINK-5142,PAYLOAD,2023-10-31 12:25:48,15.08838113,0.0001376,53.2166,115.7369,91.1716,268.9434,2.8889e-05,1.72e-06,0.0,0 STARLINK-5142,1 53984U 22125W   23304.51791726  .00000172  00000-0  28889-4 0  9990,2 53984  53.2166 115.7369 0001376  91.1716 268.9434 15.08838113 59602,6917.886,95.438,540.703,538.799,0.0
53984.0,STARLINK-5142,PAYLOAD,2023-10-31 18:47:20,15.08841382,0.0001306,53.2169,114.5475,94.2872,265.827,5.2712e-05,5.51e-06,0.0,0 STARLINK-5142,1 53984U 22125W   23304.78287397  .00000551  00000-0  52712-4 0  9996,2 53984  53.2169 114.5475 0001306  94.2872 265.8270 15.08841382 59640,6917.876,95.437,540.645,538.838,0.0
53984.0,STARLINK-5142,PAYLOAD,2023-11-01 04:19:39,15.08840627,0.0001274,53.2172,112.7639,94.1087,266.0051,3.8412e-05,3.24e-06,0.0,0 STARLINK-5142,1 53984U 22125W   23305.18031528  .00000324  00000-0  38412-4 0  9993,2 53984  53.2172 112.7639 0001274  94.1087 266.0051 15.08840627 59772,6917.878,95.438,540.625,538.862,0.0
53984.0,STARLINK-5142,PAYLOAD,2023-11-01 20:13:30,15.08842273,0.0001071,53.217,109.7889,87.3048,272.8066,9.9618e-05,1.298e-05,0.0,0 STARLINK-5142,1 53984U 22125W   23305.84271359  .00001298  00000-0  99618-4 0  9990,2 53984  53.2170 109.7889 0001071  87.3048 272.8066 15.08842273 59803,6917.873,95.437,540.479,538.998,0.0
53984.0,STARLINK-5142,PAYLOAD,2023-11-02 10:31:59,15.08838331,0.0001523,53.2177,107.1136,83.6953,276.4213,8.7822e-05,1.11e-05,0.0,0 STARLINK-5142,1 53984U 22125W   23306.43887840  .00001110  00000-0  87822-4 0  9991,2 53984  53.2177 107.1136 0001523  83.6953 276.4213 15.08838331 59964,6917.885,95.438,540.804,538.697,0.0
53984.0,STARLINK-5142,PAYLOAD,2023-11-02 18:28:54,15.08840317,0.0001283,53.2173,105.6268,85.6522,274.4617,5.8932e-05,6.5e-06,0.0,0 STARLINK-5142,1 53984U 22125W   23306.77007751  .00000650  00000-0  58932-4 0  9991,2 53984  53.2173 105.6268 0001283  85.6522 274.4617 15.08840317 59947,6917.879,95.438,540.632,538.857,0.0
53984.0,STARLINK-5142,PAYLOAD,2023-11-03 10:22:46,15.08841431,0.0001396,53.2175,102.6533,84.341,275.7741,6.711e-05,7.8e-06,0.0,0 STARLINK-5142,1 53984U 22125W   23307.43247743  .00000780  00000-0  67110-4 0  9994,2 53984  53.2175 102.6533 0001396  84.3410 275.7741 15.08841431 60041,6917.876,95.437,540.707,538.775,0.0
